{
    "links": {
        "self": "http://www.neowsapp.com/rest/v1/neo/3843926?api_key=iIulBulltgU6a56xZRHN4H3l9WmuAYTsLGpBGhQ2"
    },
    "id": "3843926",
    "neo_reference_id": "3843926",
    "name": "(2019 SC2)",
    "designation": "2019 SC2",
    "nasa_jpl_url": "http://ssd.jpl.nasa.gov/sbdb.cgi?sstr=3843926",
    "absolute_magnitude_h": 27.7,
    "estimated_diameter": {
        "kilometers": {
            "estimated_diameter_min": 0.0076657557,
            "estimated_diameter_max": 0.0171411509
        },
        "meters": {
            "estimated_diameter_min": 7.6657557353,
            "estimated_diameter_max": 17.1411509231
        },
        "miles": {
            "estimated_diameter_min": 0.0047632783,
            "estimated_diameter_max": 0.0106510141
        },
        "feet": {
            "estimated_diameter_min": 25.1501180466,
            "estimated_diameter_max": 56.2373735944
        }
    },
    "is_potentially_hazardous_asteroid": false,
    "close_approach_data": [
        {
            "close_approach_date": "2019-09-10",
            "close_approach_date_full": "2019-Sep-10 13:33",
            "epoch_date_close_approach": 1568122380000,
            "relative_velocity": {
                "kilometers_per_second": "6.8826153775",
                "kilometers_per_hour": "24777.4153590552",
                "miles_per_hour": "15395.722337964"
            },
            "miss_distance": {
                "astronomical": "0.0211399737",
                "lunar": "8.2234497693",
                "kilometers": "3162495.037376019",
                "miles": "1965083.2941023022"
            },
            "orbiting_body": "Earth"
        }
    ],
    "orbital_data": {
        "orbit_id": "2",
        "orbit_determination_date": "2019-10-08 05:58:11",
        "first_observation_date": "2019-09-20",
        "last_observation_date": "2019-09-24",
        "data_arc_in_days": 4,
        "observations_used": 17,
        "orbit_uncertainty": "8",
        "minimum_orbit_intersection": ".0123197",
        "jupiter_tisserand_invariant": "4.282",
        "epoch_osculation": "2458747.5",
        "eccentricity": ".3762196896604651",
        "semi_major_axis": "1.597882440208853",
        "inclination": "3.156921115346981",
        "ascending_node_longitude": "353.5809604953906",
        "orbital_period": "737.7609482413941",
        "perihelion_distance": ".9967276044395715",
        "perihelion_argument": "328.4072646913504",
        "aphelion_distance": "2.199037275978134",
        "perihelion_time": "2458715.585087568200",
        "mean_anomaly": "15.57329444291581",
        "mean_motion": ".4879629382093678",
        "equinox": "J2000",
        "orbit_class": {
            "orbit_class_type": "APO",
            "orbit_class_description": "Near-Earth asteroid orbits which cross the Earth’s orbit similar to that of 1862 Apollo",
            "orbit_class_range": "a (semi-major axis) > 1.0 AU; q (perihelion) < 1.017 AU"
        }
    },
    "is_sentry_object": false
}